{
    "links": {
        "self": "http://www.neowsapp.com/rest/v1/neo/3803758?api_key=iIulBulltgU6a56xZRHN4H3l9WmuAYTsLGpBGhQ2"
    },
    "id": "3803758",
    "neo_reference_id": "3803758",
    "name": "(2018 GW4)",
    "designation": "2018 GW4",
    "nasa_jpl_url": "http://ssd.jpl.nasa.gov/sbdb.cgi?sstr=3803758",
    "absolute_magnitude_h": 22.1,
    "estimated_diameter": {
        "kilometers": {
            "estimated_diameter_min": 0.1010543415,
            "estimated_diameter_max": 0.2259643771
        },
        "meters": {
            "estimated_diameter_min": 101.054341542,
            "estimated_diameter_max": 225.9643771094
        },
        "miles": {
            "estimated_diameter_min": 0.0627922373,
            "estimated_diameter_max": 0.140407711
        },
        "feet": {
            "estimated_diameter_min": 331.5431259047,
            "estimated_diameter_max": 741.3529669956
        }
    },
    "is_potentially_hazardous_asteroid": false,
    "close_approach_data": [
        {
            "close_approach_date": "2018-05-22",
            "close_approach_date_full": "2018-May-22 05:15",
            "epoch_date_close_approach": 1526966100000,
            "relative_velocity": {
                "kilometers_per_second": "15.916416449",
                "kilometers_per_hour": "57299.0992162571",
                "miles_per_hour": "35603.4319546793"
            },
            "miss_distance": {
                "astronomical": "0.1508988672",
                "lunar": "58.6996593408",
                "kilometers": "22574149.118532864",
                "miles": "14026925.8250629632"
            },
            "orbiting_body": "Earth"
        },
        {
            "close_approach_date": "2155-11-10",
            "close_approach_date_full": "2155-Nov-10 04:17",
            "epoch_date_close_approach": 5865106620000,
            "relative_velocity": {
                "kilometers_per_second": "4.8254197209",
                "kilometers_per_hour": "17371.5109952678",
                "miles_per_hour": "10793.9813736985"
            },
            "miss_distance": {
                "astronomical": "1.7101094102",
                "lunar": "665.2325605678",
                "kilometers": "255828725.232876274",
                "miles": "158964598.5733256212"
            },
            "orbiting_body": "Juptr"
        }
    ],
    "orbital_data": {
        "orbit_id": "9",
        "orbit_determination_date": "2018-05-10 06:43:31",
        "first_observation_date": "2018-04-11",
        "last_observation_date": "2018-05-10",
        "data_arc_in_days": 29,
        "observations_used": 53,
        "orbit_uncertainty": "7",
        "minimum_orbit_intersection": ".0904366",
        "jupiter_tisserand_invariant": "3.263",
        "epoch_osculation": "2459000.5",
        "eccentricity": ".6100260125640196",
        "semi_major_axis": "2.33263259686513",
        "inclination": "13.48549638294255",
        "ascending_node_longitude": "93.5913511188613",
        "orbital_period": "1301.271557457389",
        "perihelion_distance": ".9096660350226404",
        "perihelion_argument": "191.1488495482403",
        "aphelion_distance": "3.755599158707619",
        "perihelion_time": "2459590.556877197022",
        "mean_anomaly": "196.7593031803556",
        "mean_motion": ".2766524772918419",
        "equinox": "J2000",
        "orbit_class": {
            "orbit_class_type": "APO",
            "orbit_class_description": "Near-Earth asteroid orbits which cross the Earth’s orbit similar to that of 1862 Apollo",
            "orbit_class_range": "a (semi-major axis) > 1.0 AU; q (perihelion) < 1.017 AU"
        }
    },
    "is_sentry_object": false
}